start=new Date('2022-10-09T00:00:00.000Z').valueOf();
sats=[{"EPHEMERIS_TYPE":"0","OBJECT_NAME":"STARLINK-4301","RA_OF_ASC_NODE":"295.5891","INCLINATION":"53.2141","COUNTRY_CODE":"US","MEAN_MOTION_DOT":"0.00067199","ARG_OF_PERICENTER":"35.6454","OBJECT_TYPE":"PAYLOAD","DECAY_DATE":null,"GP_ID":"214508327","BSTAR":"0.00420530000000","TIME_SYSTEM":"UTC","TLE_LINE2":"2 52997  53.2141 295.5891 0002129  35.6454 318.4502 15.08796830  1304","NORAD_CAT_ID":"52997","PERIAPSIS":"538.405","SITE":"AFETR","CLASSIFICATION_TYPE":"U","APOAPSIS":"541.350","EPOCH":"2022-10-08T22:00:00.999936","MEAN_ELEMENT_THEORY":"SGP4","MEAN_MOTION":"15.08796830","TLE_LINE1":"1 52997U 22076M   22281.91667824  .00067199  00000-0  42053-2 0  9995","PERIOD":"95.440","ELEMENT_SET_NO":"999","REV_AT_EPOCH":"130","SEMIMAJOR_AXIS":"6918.012","MEAN_MOTION_DDOT":"0.0000000000000","REF_FRAME":"TEME","FILE":"3596607","LAUNCH_DATE":"2022-07-07","ECCENTRICITY":"0.00021290","RCS_SIZE":"LARGE","CENTER_NAME":"EARTH","MEAN_ANOMALY":"318.4502","OBJECT_ID":"2022-076M"},{"FILE":"3596607","MEAN_MOTION_DDOT":"0.0000000000000","REF_FRAME":"TEME","REV_AT_EPOCH":"130","SEMIMAJOR_AXIS":"6917.999","CENTER_NAME":"EARTH","OBJECT_ID":"2022-076N","MEAN_ANOMALY":"254.3844","RCS_SIZE":"LARGE","ECCENTRICITY":"0.00017060","LAUNCH_DATE":"2022-07-07","MEAN_ELEMENT_THEORY":"SGP4","EPOCH":"2022-10-08T22:00:00.999936","CLASSIFICATION_TYPE":"U","APOAPSIS":"541.044","ELEMENT_SET_NO":"999","PERIOD":"95.440","TLE_LINE1":"1 52998U 22076N   22281.91667824  .00052718  00000-0  33093-2 0  9991","MEAN_MOTION":"15.08801291","BSTAR":"0.00330930000000","TIME_SYSTEM":"UTC","GP_ID":"214509067","SITE":"AFETR","PERIAPSIS":"538.683","NORAD_CAT_ID":"52998","TLE_LINE2":"2 52998  53.2169 295.5973 0001706  54.5246 254.3844 15.08801291  1300","RA_OF_ASC_NODE":"295.5973","OBJECT_NAME":"STARLINK-4254","EPHEMERIS_TYPE":"0","DECAY_DATE":null,"OBJECT_TYPE":"PAYLOAD","MEAN_MOTION_DOT":"0.00052718","COUNTRY_CODE":"US","ARG_OF_PERICENTER":"54.5246","INCLINATION":"53.2169"},{"CLASSIFICATION_TYPE":"U","APOAPSIS":"540.833","MEAN_ELEMENT_THEORY":"SGP4","EPOCH":"2022-10-08T22:00:00.999936","TLE_LINE1":"1 52999U 22076P   22281.91667824  .00028227  00000-0  17848-2 0  9990","MEAN_MOTION":"15.08834638","ELEMENT_SET_NO":"999","PERIOD":"95.438","MEAN_MOTION_DDOT":"0.0000000000000","REF_FRAME":"TEME","REV_AT_EPOCH":"130","SEMIMAJOR_AXIS":"6917.897","FILE":"3596607","ECCENTRICITY":"0.00015480","LAUNCH_DATE":"2022-07-07","CENTER_NAME":"EARTH","MEAN_ANOMALY":"335.4297","OBJECT_ID":"2022-076P","RCS_SIZE":"LARGE","EPHEMERIS_TYPE":"0","RA_OF_ASC_NODE":"295.5771","OBJECT_NAME":"STARLINK-4217","INCLINATION":"53.2144","OBJECT_TYPE":"PAYLOAD","DECAY_DATE":null,"COUNTRY_CODE":"US","MEAN_MOTION_DOT":"0.00028227","ARG_OF_PERICENTER":"58.6942","TIME_SYSTEM":"UTC","BSTAR":"0.00178480000000","GP_ID":"214508584","NORAD_CAT_ID":"52999","TLE_LINE2":"2 52999  53.2144 295.5771 0001548  58.6942 335.4297 15.08834638  1306","SITE":"AFETR","PERIAPSIS":"538.691"},{"EPOCH":"2022-10-08T22:00:00.999936","MEAN_ELEMENT_THEORY":"SGP4","APOAPSIS":"541.390","CLASSIFICATION_TYPE":"U","ELEMENT_SET_NO":"999","PERIOD":"95.439","MEAN_MOTION":"15.08812206","TLE_LINE1":"1 53000U 22076Q   22281.91667824  .00047516  00000-0  29858-2 0  9990","FILE":"3596607","SEMIMAJOR_AXIS":"6917.965","REV_AT_EPOCH":"130","REF_FRAME":"TEME","MEAN_MOTION_DDOT":"0.0000000000000","RCS_SIZE":"LARGE","OBJECT_ID":"2022-076Q","MEAN_ANOMALY":"280.9255","CENTER_NAME":"EARTH","LAUNCH_DATE":"2022-07-07","ECCENTRICITY":"0.00022550","OBJECT_NAME":"STARLINK-4194","RA_OF_ASC_NODE":"295.5958","EPHEMERIS_TYPE":"0","COUNTRY_CODE":"US","ARG_OF_PERICENTER":"33.1442","MEAN_MOTION_DOT":"0.00047516","DECAY_DATE":null,"OBJECT_TYPE":"PAYLOAD","INCLINATION":"53.2167","GP_ID":"214508905","BSTAR":"0.00298580000000","TIME_SYSTEM":"UTC","PERIAPSIS":"538.270","SITE":"AFETR","TLE_LINE2":"2 53000  53.2167 295.5958 0002255  33.1442 280.9255 15.08812206  1306","NORAD_CAT_ID":"53000"},{"GP_ID":"214508744","BSTAR":"0.00140160000000","TIME_SYSTEM":"UTC","TLE_LINE2":"2 53001  53.2159 295.5753 0001481  58.5789 355.5207 15.08820174  1305","NORAD_CAT_ID":"53001","PERIAPSIS":"538.781","SITE":"AFETR","EPHEMERIS_TYPE":"0","OBJECT_NAME":"STARLINK-4190","RA_OF_ASC_NODE":"295.5753","INCLINATION":"53.2159","ARG_OF_PERICENTER":"58.5789","COUNTRY_CODE":"US","MEAN_MOTION_DOT":"0.00022077","DECAY_DATE":null,"OBJECT_TYPE":"PAYLOAD","REV_AT_EPOCH":"130","SEMIMAJOR_AXIS":"6917.941","MEAN_MOTION_DDOT":"0.0000000000000","REF_FRAME":"TEME","FILE":"3596607","LAUNCH_DATE":"2022-07-07","ECCENTRICITY":"0.00014810","RCS_SIZE":"LARGE","OBJECT_ID":"2022-076R","MEAN_ANOMALY":"355.5207","CENTER_NAME":"EARTH","CLASSIFICATION_TYPE":"U","APOAPSIS":"540.831","EPOCH":"2022-10-08T22:00:00.999936","MEAN_ELEMENT_THEORY":"SGP4","MEAN_MOTION":"15.08820174","TLE_LINE1":"1 53001U 22076R   22281.91667824  .00022077  00000-0  14016-2 0  9996","ELEMENT_SET_NO":"999","PERIOD":"95.439"},{"MEAN_ELEMENT_THEORY":"SGP4","EPOCH":"2022-10-08T22:00:00.999936","CLASSIFICATION_TYPE":"U","APOAPSIS":"541.424","PERIOD":"95.440","ELEMENT_SET_NO":"999","TLE_LINE1":"1 53002U 22076S   22281.91667824  .00039207  00000-0  24700-2 0  9991","MEAN_MOTION":"15.08807705","FILE":"3596607","MEAN_MOTION_DDOT":"0.0000000000000","REF_FRAME":"TEME","REV_AT_EPOCH":"130","SEMIMAJOR_AXIS":"6917.979","MEAN_ANOMALY":"294.6065","CENTER_NAME":"EARTH","OBJECT_ID":"2022-076S","RCS_SIZE":"LARGE","ECCENTRICITY":"0.00022840","LAUNCH_DATE":"2022-07-07","RA_OF_ASC_NODE":"295.5936","OBJECT_NAME":"STARLINK-4121","EPHEMERIS_TYPE":"0","OBJECT_TYPE":"PAYLOAD","DECAY_DATE":null,"MEAN_MOTION_DOT":"0.00039207","COUNTRY_CODE":"US","ARG_OF_PERICENTER":"39.5114","INCLINATION":"53.2161","TIME_SYSTEM":"UTC","BSTAR":"0.00247000000000","GP_ID":"214509301","SITE":"AFETR","PERIAPSIS":"538.264","NORAD_CAT_ID":"53002","TLE_LINE2":"2 53002  53.2161 295.5936 0002284  39.5114 294.6065 15.08807705  1305"},{"TLE_LINE1":"1 53003U 22076T   22281.91667824  .00053500  00000-0  33565-2 0  9993","MEAN_MOTION":"15.08815167","PERIOD":"95.439","ELEMENT_SET_NO":"999","APOAPSIS":"540.806","CLASSIFICATION_TYPE":"U","MEAN_ELEMENT_THEORY":"SGP4","EPOCH":"2022-10-08T22:00:00.999936","ECCENTRICITY":"0.00014230","LAUNCH_DATE":"2022-07-07","MEAN_ANOMALY":"30.0387","CENTER_NAME":"EARTH","OBJECT_ID":"2022-076T","RCS_SIZE":"LARGE","REF_FRAME":"TEME","MEAN_MOTION_DDOT":"0.0000000000000","SEMIMAJOR_AXIS":"6917.956","REV_AT_EPOCH":"130","FILE":"3596607","INCLINATION":"53.2161","OBJECT_TYPE":"PAYLOAD","DECAY_DATE":null,"MEAN_MOTION_DOT":"0.00053500","COUNTRY_CODE":"US","ARG_OF_PERICENTER":"64.0623","EPHEMERIS_TYPE":"0","RA_OF_ASC_NODE":"295.5736","OBJECT_NAME":"STARLINK-4255","NORAD_CAT_ID":"53003","TLE_LINE2":"2 53003  53.2161 295.5736 0001423  64.0623  30.0387 15.08815167  1306","SITE":"AFETR","PERIAPSIS":"538.837","TIME_SYSTEM":"UTC","BSTAR":"0.00335650000000","GP_ID":"214508167"},{"ELEMENT_SET_NO":"999","PERIOD":"95.440","MEAN_MOTION":"15.08800762","TLE_LINE1":"1 53004U 22076U   22281.91667824  .00056671  00000-0  35542-2 0  9993","EPOCH":"2022-10-08T22:00:00.999936","MEAN_ELEMENT_THEORY":"SGP4","CLASSIFICATION_TYPE":"U","APOAPSIS":"541.025","RCS_SIZE":"LARGE","OBJECT_ID":"2022-076U","CENTER_NAME":"EARTH","MEAN_ANOMALY":"311.3353","LAUNCH_DATE":"2022-07-07","ECCENTRICITY":"0.00016760","FILE":"3596607","REV_AT_EPOCH":"130","SEMIMAJOR_AXIS":"6918.000","MEAN_MOTION_DDOT":"0.0000000000000","REF_FRAME":"TEME","COUNTRY_CODE":"US","ARG_OF_PERICENTER":"62.7731","MEAN_MOTION_DOT":"0.00056671","OBJECT_TYPE":"PAYLOAD","DECAY_DATE":null,"INCLINATION":"53.2147","OBJECT_NAME":"STARLINK-4253","RA_OF_ASC_NODE":"295.5829","EPHEMERIS_TYPE":"0","PERIAPSIS":"538.706","SITE":"AFETR","TLE_LINE2":"2 53004  53.2147 295.5829 0001676  62.7731 311.3353 15.08800762  1302","NORAD_CAT_ID":"53004","GP_ID":"214508490","TIME_SYSTEM":"UTC","BSTAR":"0.00355420000000"},{"ARG_OF_PERICENTER":"61.6029","COUNTRY_CODE":"US","MEAN_MOTION_DOT":"0.00061303","DECAY_DATE":null,"OBJECT_TYPE":"PAYLOAD","INCLINATION":"53.2146","OBJECT_NAME":"STARLINK-4288","RA_OF_ASC_NODE":"295.5748","EPHEMERIS_TYPE":"0","PERIAPSIS":"538.814","SITE":"AFETR","TLE_LINE2":"2 53005  53.2146 295.5748 0001503  61.6029  52.4970 15.08804602  1304","NORAD_CAT_ID":"53005","GP_ID":"214508328","BSTAR":"0.00384030000000","TIME_SYSTEM":"UTC","PERIOD":"95.440","ELEMENT_SET_NO":"999","MEAN_MOTION":"15.08804602","TLE_LINE1":"1 53005U 22076V   22281.91667824  .00061303  00000-0  38403-2 0  9991","EPOCH":"2022-10-08T22:00:00.999936","MEAN_ELEMENT_THEORY":"SGP4","CLASSIFICATION_TYPE":"U","APOAPSIS":"540.893","RCS_SIZE":"LARGE","MEAN_ANOMALY":"52.4970","OBJECT_ID":"2022-076V","CENTER_NAME":"EARTH","LAUNCH_DATE":"2022-07-07","ECCENTRICITY":"0.00015030","FILE":"3596607","REV_AT_EPOCH":"130","SEMIMAJOR_AXIS":"6917.989","MEAN_MOTION_DDOT":"0.0000000000000","REF_FRAME":"TEME"},{"REV_AT_EPOCH":"130","SEMIMAJOR_AXIS":"6917.985","MEAN_MOTION_DDOT":"0.0000000000000","REF_FRAME":"TEME","FILE":"3596607","LAUNCH_DATE":"2022-07-07","ECCENTRICITY":"0.00018030","RCS_SIZE":"LARGE","MEAN_ANOMALY":"33.1858","CENTER_NAME":"EARTH","OBJECT_ID":"2022-076W","CLASSIFICATION_TYPE":"U","APOAPSIS":"541.097","EPOCH":"2022-10-08T22:00:00.999936","MEAN_ELEMENT_THEORY":"SGP4","MEAN_MOTION":"15.08805856","TLE_LINE1":"1 53006U 22076W   22281.91667824  .00047201  00000-0  29668-2 0  9996","PERIOD":"95.440","ELEMENT_SET_NO":"999","GP_ID":"214509068","BSTAR":"0.00296680000000","TIME_SYSTEM":"UTC","TLE_LINE2":"2 53006  53.2169 295.5823 0001803  40.9115  33.1858 15.08805856  1306","NORAD_CAT_ID":"53006","PERIAPSIS":"538.602","SITE":"AFETR","EPHEMERIS_TYPE":"0","OBJECT_NAME":"STARLINK-4290","RA_OF_ASC_NODE":"295.5823","INCLINATION":"53.2169","COUNTRY_CODE":"US","MEAN_MOTION_DOT":"0.00047201","ARG_OF_PERICENTER":"40.9115","DECAY_DATE":null,"OBJECT_TYPE":"PAYLOAD"}];
